NORAD_CAT_ID,OBJECT_NAME,OBJECT_TYPE,EPOCH,MEAN_MOTION,ECCENTRICITY,INCLINATION,RA_OF_ASC_NODE,ARG_OF_PERICENTER,MEAN_ANOMALY,BSTAR,MEAN_MOTION_DOT,MEAN_MOTION_DDOT,TLE_LINE0,TLE_LINE1,TLE_LINE2,SEMIMAJOR_AXIS,PERIOD,APOGEE,PERIGEE,DECAYED
52502.0,STARLINK-3912,PAYLOAD,2023-12-17 11:44:11,15.088257,0.0001341,53.2173,89.7515,93.1721,266.9424,-3.7514e-05,-8.85e-06,0.0,0 STARLINK-3912,1 52502U 22049BD  23351.48902449 -.00000885  00000-0 -37514-4 0  9992,2 52502  53.2173  89.7515 0001341  93.1721 266.9424 15.08825700 89921,6917.924,95.438,540.717,538.861,0.0
52502.0,STARLINK-3912,PAYLOAD,2023-12-17 13:19:34,15.08826323,0.0001363,53.2178,89.4543,86.3841,273.7307,-2.8309e-05,-7.38e-06,0.0,0 STARLINK-3912,1 52502U 22049BD  23351.55526533 -.00000738  00000-0 -28309-4 0  9995,2 52502  53.2178  89.4543 0001363  86.3841 273.7307 15.08826323 89776,6917.922,95.438,540.73,538.844,0.0
52502.0,STARLINK-3912,PAYLOAD,2023-12-18 11:34:57,15.08850888,0.0001622,53.2177,85.2957,67.3106,292.8058,0.00037285,5.653e-05,0.0,0 STARLINK-3912,1 52502U 22049BD  23352.48261479  .00005653  00000-0  37285-3 0  9994,2 52502  53.2177  85.2957 0001622  67.3106 292.8058 15.08850888 90072,6917.847,95.437,540.834,538.59,0.0
52502.0,STARLINK-3912,PAYLOAD,2023-12-19 11:25:44,15.08853185,0.0001499,53.2176,80.8315,107.6312,252.4844,0.00024807,3.664e-05,0.0,0 STARLINK-3912,1 52502U 22049BD  23353.47621164  .00003664  00000-0  24807-3 0  9991,2 52502  53.2176  80.8315 0001499 107.6312 252.4844 15.08853185 90224,6917.84,95.437,540.742,538.668,0.0
52502.0,STARLINK-3912,PAYLOAD,2023-12-19 13:01:07,15.0885353,0.000139,53.2176,80.536,98.3466,261.7683,0.00023915,3.522e-05,0.0,0 STARLINK-3912,1 52502U 22049BD  23353.54245136  .00003522  00000-0  23915-3 0  9992,2 52502  53.2176  80.5360 0001390  98.3466 261.7683 15.08853530 90078,6917.839,95.437,540.666,538.742,0.0
52502.0,STARLINK-3912,PAYLOAD,2023-12-20 11:16:31,15.08839148,0.0001402,53.2173,76.3694,85.0877,275.0275,-0.00017555,-3.081e-05,0.0,0 STARLINK-3912,1 52502U 22049BD  23354.46981135 -.00003081  00000-0 -17555-3 0  9995,2 52502  53.2173  76.3694 0001402  85.0877 275.0275 15.08839148 90378,6917.883,95.438,540.718,538.778,0.0
52502.0,STARLINK-3912,PAYLOAD,2023-12-20 12:51:54,15.08839222,0.00014,53.2174,76.0721,84.6499,275.4653,-0.0001448,-2.592e-05,0.0,0 STARLINK-3912,1 52502U 22049BD  23354.53605156 -.00002592  00000-0 -14480-3 0  9999,2 52502  53.2174  76.0721 0001400  84.6499 275.4653 15.08839222 90221,6917.883,95.438,540.716,538.779,0.0
52502.0,STARLINK-3912,PAYLOAD,2023-12-21 11:07:18,15.08852219,0.0001442,53.2172,71.9091,80.2697,279.8458,0.00030803,4.619e-05,0.0,0 STARLINK-3912,1 52502U 22049BD  23355.46341066  .00004619  00000-0  30803-3 0  9996,2 52502  53.2172  71.9091 0001442  80.2697 279.8458 15.08852219 90526,6917.843,95.437,540.706,538.71,0.0
52502.0,STARLINK-3912,PAYLOAD,2023-12-21 12:42:41,15.08856738,0.0001501,53.2176,71.6116,73.1419,286.9738,0.00051708,7.955e-05,0.0,0 STARLINK-3912,1 52502U 22049BD  23355.52965046  .00007955  00000-0  51708-3 0  9996,2 52502  53.2176  71.6116 0001501  73.1419 286.9738 15.08856738 90377,6917.829,95.436,540.733,538.656,0.0
52502.0,STARLINK-3912,PAYLOAD,2023-12-22 10:58:06,15.08847117,0.0001609,53.2176,67.4492,73.0923,287.0245,0.00026966,4.007e-05,0.0,0 STARLINK-3912,1 52502U 22049BD  23356.45701438  .00004007  00000-0  26966-3 0  9995,2 52502  53.2176  67.4492 0001609  73.0923 287.0245 15.08847117 90674,6917.859,95.437,540.837,538.611,0.0
52502.0,STARLINK-3912,PAYLOAD,2023-12-22 12:33:29,15.08848729,0.00015,53.2175,67.1516,78.233,281.883,0.00049341,7.575e-05,0.0,0 STARLINK-3912,1 52502U 22049BD  23356.52325351  .00007575  00000-0  49341-3 0  9994,2 52502  53.2175  67.1516 0001500  78.2330 281.8830 15.08848729 90522,6917.854,95.437,540.756,538.681,0.0
52502.0,STARLINK-3912,PAYLOAD,2023-12-23 04:27:20,15.08830491,0.0001419,53.2185,64.1786,97.8588,262.2565,0.00032031,4.812e-05,0.0,0 STARLINK-3912,1 52502U 22049BD  23357.18565764  .00004812  00000-0  32031-3 0  9990,2 52502  53.2185  64.1786 0001419  97.8588 262.2565 15.08830491 90783,6917.909,95.438,540.756,538.793,0.0
52502.0,STARLINK-3912,PAYLOAD,2023-12-23 13:59:39,15.08849685,0.0001542,53.2174,62.3954,80.6601,279.4566,0.00079375,0.0001237,0.0,0 STARLINK-3912,1 52502U 22049BD  23357.58309686  .00012370  00000-0  79375-3 0  9993,2 52502  53.2174  62.3954 0001542  80.6601 279.4566 15.08849685 90686,6917.851,95.437,540.783,538.649,0.0
52502.0,STARLINK-3912,PAYLOAD,2023-12-24 04:18:08,15.08838733,0.000112,53.2186,59.7213,68.3341,291.777,0.00053956,8.309e-05,0.0,0 STARLINK-3912,1 52502U 22049BD  23358.17926129  .00008309  00000-0  53956-3 0  9990,2 52502  53.2186  59.7213 0001120  68.3341 291.7770 15.08838733 90937,6917.884,95.438,540.524,538.974,0.0
52502.0,STARLINK-3912,PAYLOAD,2023-12-24 10:39:40,15.08848617,0.0001825,53.2181,58.5305,112.486,247.6325,0.00071709,0.00011146,0.0,0 STARLINK-3912,1 52502U 22049BD  23358.44421756  .00011146  00000-0  71709-3 0  9995,2 52502  53.2181  58.5305 0001825 112.4860 247.6325 15.08848617 90815,6917.854,95.437,540.982,538.457,0.0
52502.0,STARLINK-3912,PAYLOAD,2023-12-25 10:30:27,15.08848769,0.0001732,53.2183,54.0724,94.1849,265.9341,0.00019154,2.762e-05,0.0,0 STARLINK-3912,1 52502U 22049BD  23359.43781587  .00002762  00000-0  19154-3 0  9996,2 52502  53.2183  54.0724 0001732  94.1849 265.9341 15.08848769 91127,6917.854,95.437,540.917,538.52,0.0
52502.0,STARLINK-3912,PAYLOAD,2023-12-25 13:41:13,15.08854592,0.0001562,53.2172,53.4744,95.705,264.4121,0.00028173,4.2e-05,0.0,0 STARLINK-3912,1 52502U 22049BD  23359.57029249  .00004200  00000-0  28173-3 0  9991,2 52502  53.2172  53.4744 0001562  95.7050 264.4121 15.08854592 90986,6917.836,95.437,540.781,538.62,0.0
52502.0,STARLINK-3912,PAYLOAD,2023-12-26 03:59:41,15.08837789,0.000136,53.2167,50.7921,94.7403,265.3744,-9.1613e-05,-1.746e-05,0.0,0 STARLINK-3912,1 52502U 22049BD  23360.16645822 -.00001746  00000-0 -91613-4 0  9993,2 52502  53.2167  50.7921 0001360  94.7403 265.3744 15.08837789 91233,6917.887,95.438,540.693,538.811,0.0
52502.0,STARLINK-3912,PAYLOAD,2023-12-26 11:56:38,15.08837195,0.0001772,53.2183,49.3147,93.9965,266.123,3.2325e-05,2.26e-06,0.0,0 STARLINK-3912,1 52502U 22049BD  23360.49766215  .00000226  00000-0  32325-4 0  9994,2 52502  53.2183  49.3147 0001772  93.9965 266.1230 15.08837195 91124,6917.889,95.438,540.98,538.528,0.0
52502.0,STARLINK-3912,PAYLOAD,2023-12-27 08:36:38,15.08844066,0.0001741,53.2177,45.4463,93.9024,266.2167,0.00020159,2.922e-05,0.0,0 STARLINK-3912,1 52502U 22049BD  23361.35878136  .00002922  00000-0  20159-3 0  9992,2 52502  53.2177  45.4463 0001741  93.9024 266.2167 15.08844066 91414,6917.868,95.437,540.937,538.529,0.0
52502.0,STARLINK-3912,PAYLOAD,2023-12-28 10:02:48,15.08844938,0.0001739,53.2173,40.6898,94.0711,266.048,0.00018786,2.703e-05,0.0,0 STARLINK-3912,1 52502U 22049BD  23362.41862114  .00002703  00000-0  18786-3 0  9999,2 52502  53.2173  40.6898 0001739  94.0711 266.0480 15.08844938 91572,6917.865,95.437,540.933,538.527,0.0
52502.0,STARLINK-3912,PAYLOAD,2023-12-29 11:28:59,15.08841288,0.0001692,53.2171,35.9275,94.0247,266.0939,-1.3357e-05,-5.01e-06,0.0,0 STARLINK-3912,1 52502U 22049BD  23363.47846266 -.00000501  00000-0 -13357-4 0  9992,2 52502  53.2171  35.9275 0001692  94.0247 266.0939 15.08841288 91730,6917.876,95.437,540.912,538.571,0.0
52502.0,STARLINK-3912,PAYLOAD,2023-12-30 11:19:46,15.08850194,0.0001828,53.2173,31.4652,79.7198,280.4,0.00023748,3.494e-05,0.0,0 STARLINK-3912,1 52502U 22049BD  23364.47206177  .00003494  00000-0  23748-3 0  9990,2 52502  53.2173  31.4652 0001828  79.7198 280.4000 15.08850194 91722,6917.849,95.437,540.979,538.45,0.0
52502.0,STARLINK-3912,PAYLOAD,2023-12-31 11:10:33,15.08838741,0.0001723,53.2169,27.0028,85.4424,274.6765,9.0599e-05,1.154e-05,0.0,0 STARLINK-3912,1 52502U 22049BD  23365.46566915  .00001154  00000-0  90599-4 0  9999,2 52502  53.2169  27.0028 0001723  85.4424 274.6765 15.08838741 92037,6917.884,95.438,540.941,538.557,0.0
52502.0,STARLINK-3912,PAYLOAD,2024-01-01 07:50:34,15.08844989,0.0002006,53.2174,23.143,120.7337,239.3853,5.8281e-05,6.4e-06,0.0,0 STARLINK-3912,1 52502U 22049BD  24001.32678634  .00000640  00000-0  58281-4 0  9995,2 52502  53.2174  23.1430 0002006 120.7337 239.3853 15.08844989 92002,6917.865,95.437,541.118,538.342,0.0
52502.0,STARLINK-3912,PAYLOAD,2024-01-02 04:30:35,15.08842433,0.0002085,53.218,19.2786,111.1513,248.9702,0.00017133,2.44e-05,0.0,0 STARLINK-3912,1 52502U 22049BD  24002.18790933  .00002440  00000-0  17133-3 0  9997,2 52502  53.2180  19.2786 0002085 111.1513 248.9702 15.08842433 92298,6917.873,95.437,541.18,538.296,0.0
52502.0,STARLINK-3912,PAYLOAD,2024-01-02 07:41:21,15.08837906,0.0001976,53.2182,18.6845,108.2441,251.8766,0.00040034,6.089e-05,0.0,0 STARLINK-3912,1 52502U 22049BD  24002.32039193  .00006089  00000-0  40034-3 0  9996,2 52502  53.2182  18.6845 0001976 108.2441 251.8766 15.08837906 92151,6917.887,95.438,541.119,538.385,0.0
52502.0,STARLINK-3912,PAYLOAD,2024-01-03 07:32:08,15.08836543,0.0001968,53.2181,14.2247,103.3839,256.7372,1.1366e-05,-1.07e-06,0.0,0 STARLINK-3912,1 52502U 22049BD  24003.31399283 -.00000107  00000-0  11366-4 0  9998,2 52502  53.2181  14.2247 0001968 103.3839 256.7372 15.08836543 92463,6917.891,95.438,541.117,538.395,0.0
52502.0,STARLINK-3912,PAYLOAD,2024-01-04 05:47:32,15.08840245,0.0001849,53.2183,10.0611,99.6236,260.4965,4.4028e-05,4.13e-06,0.0,0 STARLINK-3912,1 52502U 22049BD  24004.24135345  .00000413  00000-0  44028-4 0  9998,2 52502  53.2183  10.0611 0001849  99.6236 260.4965 15.08840245 92442,6917.88,95.438,541.024,538.466,0.0
52502.0,STARLINK-3912,PAYLOAD,2024-01-05 04:02:57,15.08835103,0.0001766,53.2179,5.8957,94.5539,265.5655,7.9901e-05,9.84e-06,0.0,0 STARLINK-3912,1 52502U 22049BD  24005.16871781  .00000984  00000-0  79901-4 0  9992,2 52502  53.2179   5.8957 0001766  94.5539 265.5655 15.08835103 92742,6917.895,95.438,540.982,538.539,0.0
